{"type": "FeatureCollection", "features": [ {"type": "Feature", "properties": {"norad_id": 66488, "name": "STARLINK-35515", "group": "last-30-days", "lat": 29.244236867536728, "lon": -143.15396213748798, "alt_km": 350.45496325912427, "timestamp": "2025-12-03T10:52:56.222023+00:00", "meta": {"OBJECT_NAME": "STARLINK-35515", "OBJECT_ID": "2025-263D", "EPOCH": "2025-12-03T04:00:01.998720", "MEAN_MOTION": 15.72797789, "ECCENTRICITY": 0.0001301, "INCLINATION": 42.999, "RA_OF_ASC_NODE": 181.6463, "ARG_OF_PERICENTER": 272.4393, "MEAN_ANOMALY": 308.5068, "EPHEMERIS_TYPE": 0, "CLASSIFICATION_TYPE": "U", "NORAD_CAT_ID": 66488, "ELEMENT_SET_NO": 999, "REV_AT_EPOCH": 409, "BSTAR": -0.015979, "MEAN_MOTION_DOT": -0.01970385, "MEAN_MOTION_DDOT": 0}, "tle": {"line1": "1 66488U 25263D   25337.16668980 -.01970385  00000+0 -15979-1 0  9990", "line2": "2 66488  42.9990 181.6463 0001301 272.4393 308.5068 15.72797789  4096"}}, "geometry": {"type": "Point", "coordinates": [-143.15396213748798, 29.244236867536728]}}, {"type": "Feature", "properties": {"norad_id": 66489, "name": "STARLINK-35696", "group": "last-30-days", "lat": 30.275658968513213, "lon": -141.298743394774, "alt_km": 350.5399657991493, "timestamp": "2025-12-03T10:52:56.222034+00:00", "meta": {"OBJECT_NAME": "STARLINK-35696", "OBJECT_ID": "2025-263E", "EPOCH": "2025-12-03T04:00:01.998720", "MEAN_MOTION": 15.72801799, "ECCENTRICITY": 0.0001383, "INCLINATION": 42.999, "RA_OF_ASC_NODE": 181.6409, "ARG_OF_PERICENTER": 259.8516, "MEAN_ANOMALY": 323.0093, "EPHEMERIS_TYPE": 0, "CLASSIFICATION_TYPE": "U", "NORAD_CAT_ID": 66489, "ELEMENT_SET_NO": 999, "REV_AT_EPOCH": 409, "BSTAR": -0.016015, "MEAN_MOTION_DOT": -0.01974758, "MEAN_MOTION_DDOT": 0}, "tle": {"line1": "1 66489U 25263E   25337.16668980 -.01974758  00000+0 -16015-1 0  9991", "line2": "2 66489  42.9990 181.6409 0001383 259.8516 323.0093 15.72801799  4090"}}, "geometry": {"type": "Point", "coordinates": [-141.298743394774, 30.275658968513213]}}, {"type": "Feature", "properties": {"norad_id": 66490, "name": "STARLINK-35693", "group": "last-30-days", "lat": 31.28368291401183, "lon": -139.39757816597145, "alt_km": 350.2835849729472, "timestamp": "2025-12-03T10:52:56.222044+00:00", "meta": {"OBJECT_NAME": "STARLINK-35693", "OBJECT_ID": "2025-263F", "EPOCH": "2025-12-03T04:00:01.998720", "MEAN_MOTION": 15.72802974, "ECCENTRICITY": 0.0001394, "INCLINATION": 42.9991, "RA_OF_ASC_NODE": 181.6359, "ARG_OF_PERICENTER": 268.8325, "MEAN_ANOMALY": 315.9473, "EPHEMERIS_TYPE": 0, "CLASSIFICATION_TYPE": "U", "NORAD_CAT_ID": 66490, "ELEMENT_SET_NO": 999, "REV_AT_EPOCH": 409, "BSTAR": -0.016051, "MEAN_MOTION_DOT": -0.01978723, "MEAN_MOTION_DDOT": 0}, "tle": {"line1": "1 66490U 25263F   25337.16668980 -.01978723  00000+0 -16051-1 0  9999", "line2": "2 66490  42.9991 181.6359 0001394 268.8325 315.9473 15.72802974  4095"}}, "geometry": {"type": "Point", "coordinates": [-139.39757816597145, 31.28368291401183]}}, {"type": "Feature", "properties": {"norad_id": 66491, "name": "STARLINK-35663", "group": "last-30-days", "lat": 33.207117338370445, "lon": -135.4816635784162, "alt_km": 350.08525054366146, "timestamp": "2025-12-03T10:52:56.222054+00:00", "meta": {"OBJECT_NAME": "STARLINK-35663", "OBJECT_ID": "2025-263G", "EPOCH": "2025-12-03T04:00:01.998720", "MEAN_MOTION": 15.72803581, "ECCENTRICITY": 0.0001404, "INCLINATION": 42.9992, "RA_OF_ASC_NODE": 181.6263, "ARG_OF_PERICENTER": 264.4732, "MEAN_ANOMALY": 324.1403, "EPHEMERIS_TYPE": 0, "CLASSIFICATION_TYPE": "U", "NORAD_CAT_ID": 66491, "ELEMENT_SET_NO": 999, "REV_AT_EPOCH": 409, "BSTAR": -0.016052, "MEAN_MOTION_DOT": -0.01978913, "MEAN_MOTION_DDOT": 0}, "tle": {"line1": "1 66491U 25263G   25337.16668980 -.01978913  00000+0 -16052-1 0  9992", "line2": "2 66491  42.9992 181.6263 0001404 264.4732 324.1403 15.72803581  4097"}}, "geometry": {"type": "Point", "coordinates": [-135.4816635784162, 33.207117338370445]}}, {"type": "Feature", "properties": {"norad_id": 66492, "name": "STARLINK-35673", "group": "last-30-days", "lat": 34.12161869149518, "lon": -133.46006970183228, "alt_km": 349.95863171969177, "timestamp": "2025-12-03T10:52:56.222064+00:00", "meta": {"OBJECT_NAME": "STARLINK-35673", "OBJECT_ID": "2025-263H", "EPOCH": "2025-12-03T04:00:01.998720", "MEAN_MOTION": 15.72807952, "ECCENTRICITY": 0.0001489, "INCLINATION": 42.9992, "RA_OF_ASC_NODE": 181.6214, "ARG_OF_PERICENTER": 268.0091, "MEAN_ANOMALY": 322.5164, "EPHEMERIS_TYPE": 0, "CLASSIFICATION_TYPE": "U", "NORAD_CAT_ID": 66492, "ELEMENT_SET_NO": 999, "REV_AT_EPOCH": 409, "BSTAR": -0.016083, "MEAN_MOTION_DOT": -0.01982724, "MEAN_MOTION_DDOT": 0}, "tle": {"line1": "1 66492U 25263H   25337.16668980 -.01982724  00000+0 -16083-1 0  9992", "line2": "2 66492  42.9992 181.6214 0001489 268.0091 322.5164 15.72807952  4097"}}, "geometry": {"type": "Point", "coordinates": [-133.46006970183228, 34.12161869149518]}}, {"type": "Feature", "properties": {"norad_id": 66493, "name": "STARLINK-35597", "group": "last-30-days", "lat": 35.0019573699029, "lon": -131.3948930922107, "alt_km": 349.91560082918295, "timestamp": "2025-12-03T10:52:56.222074+00:00", "meta": {"OBJECT_NAME": "STARLINK-35597", "OBJECT_ID": "2025-263J", "EPOCH": "2025-12-03T04:00:01.998720", "MEAN_MOTION": 15.72800335, "ECCENTRICITY": 0.0001489, "INCLINATION": 42.9989, "RA_OF_ASC_NODE": 181.6163, "ARG_OF_PERICENTER": 262.4902, "MEAN_ANOMALY": 329.9592, "EPHEMERIS_TYPE": 0, "CLASSIFICATION_TYPE": "U", "NORAD_CAT_ID": 66493, "ELEMENT_SET_NO": 999, "REV_AT_EPOCH": 409, "BSTAR": -0.016019, "MEAN_MOTION_DOT": -0.01975185, "MEAN_MOTION_DDOT": 0}, "tle": {"line1": "1 66493U 25263J   25337.16668980 -.01975185  00000+0 -16019-1 0  9995", "line2": "2 66493  42.9989 181.6163 0001489 262.4902 329.9592 15.72800335  4090"}}, "geometry": {"type": "Point", "coordinates": [-131.3948930922107, 35.0019573699029]}}, {"type": "Feature", "properties": {"norad_id": 66494, "name": "STARLINK-35689", "group": "last-30-days", "lat": 32.260469349548664, "lon": -137.46050541211577, "alt_km": 350.23293063232177, "timestamp": "2025-12-03T10:52:56.222086+00:00", "meta": {"OBJECT_NAME": "STARLINK-35689", "OBJECT_ID": "2025-263K", "EPOCH": "2025-12-03T04:00:01.998720", "MEAN_MOTION": 15.72794894, "ECCENTRICITY": 0.0001543, "INCLINATION": 42.9992, "RA_OF_ASC_NODE": 181.6313, "ARG_OF_PERICENTER": 268.917, "MEAN_ANOMALY": 317.7822, "EPHEMERIS_TYPE": 0, "CLASSIFICATION_TYPE": "U", "NORAD_CAT_ID": 66494, "ELEMENT_SET_NO": 999, "REV_AT_EPOCH": 409, "BSTAR": -0.015951, "MEAN_MOTION_DOT": -0.01967319, "MEAN_MOTION_DDOT": 0}, "tle": {"line1": "1 66494U 25263K   25337.16668980 -.01967319  00000+0 -15951-1 0  9990", "line2": "2 66494  42.9992 181.6313 0001543 268.9170 317.7822 15.72794894  4094"}}, "geometry": {"type": "Point", "coordinates": [-137.46050541211577, 32.260469349548664]}}, {"type": "Feature", "properties": {"norad_id": 66495, "name": "STARLINK-35832", "group": "last-30-days", "lat": 35.84870053492852, "lon": -129.28011134758123, "alt_km": 349.72946642272836, "timestamp": "2025-12-03T10:52:56.222097+00:00", "meta": {"OBJECT_NAME": "STARLINK-35832", "OBJECT_ID": "2025-263L", "EPOCH": "2025-12-03T04:00:01.998720", "MEAN_MOTION": 15.72804805, "ECCENTRICITY": 0.0001448, "INCLINATION": 42.999, "RA_OF_ASC_NODE": 181.6117, "ARG_OF_PERICENTER": 266.9638, "MEAN_ANOMALY": 327.4051, "EPHEMERIS_TYPE": 0, "CLASSIFICATION_TYPE": "U", "NORAD_CAT_ID": 66495, "ELEMENT_SET_NO": 999, "REV_AT_EPOCH": 409, "BSTAR": -0.016114, "MEAN_MOTION_DOT": -0.01985793, "MEAN_MOTION_DDOT": 0}, "tle": {"line1": "1 66495U 25263L   25337.16668980 -.01985793  00000+0 -16114-1 0  9999", "line2": "2 66495  42.9990 181.6117 0001448 266.9638 327.4051 15.72804805  4092"}}, "geometry": {"type": "Point", "coordinates": [-129.28011134758123, 35.84870053492852]}}, {"type": "Feature", "properties": {"norad_id": 66496, "name": "STARLINK-35909", "group": "last-30-days", "lat": 36.654402668913036, "lon": -127.12918359774547, "alt_km": 349.6152678943354, "timestamp": "2025-12-03T10:52:56.222107+00:00", "meta": {"OBJECT_NAME": "STARLINK-35909", "OBJECT_ID": "2025-263M", "EPOCH": "2025-12-03T04:00:01.998720", "MEAN_MOTION": 15.7280048, "ECCENTRICITY": 0.0001523, "INCLINATION": 42.999, "RA_OF_ASC_NODE": 181.6067, "ARG_OF_PERICENTER": 270.3621, "MEAN_ANOMALY": 325.9201, "EPHEMERIS_TYPE": 0, "CLASSIFICATION_TYPE": "U", "NORAD_CAT_ID": 66496, "ELEMENT_SET_NO": 999, "REV_AT_EPOCH": 409, "BSTAR": -0.016017, "MEAN_MOTION_DOT": -0.01974933, "MEAN_MOTION_DDOT": 0}, "tle": {"line1": "1 66496U 25263M   25337.16668980 -.01974933  00000+0 -16017-1 0  9996", "line2": "2 66496  42.9990 181.6067 0001523 270.3621 325.9201 15.72800480  4097"}}, "geometry": {"type": "Point", "coordinates": [-127.12918359774547, 36.654402668913036]}}, {"type": "Feature", "properties": {"norad_id": 66497, "name": "STARLINK-35899", "group": "last-30-days", "lat": 37.42129331321105, "lon": -124.9311881109803, "alt_km": 349.4597825393057, "timestamp": "2025-12-03T10:52:56.222117+00:00", "meta": {"OBJECT_NAME": "STARLINK-35899", "OBJECT_ID": "2025-263N", "EPOCH": "2025-12-03T04:00:01.998720", "MEAN_MOTION": 15.72800268, "ECCENTRICITY": 0.0001475, "INCLINATION": 42.9989, "RA_OF_ASC_NODE": 181.6015, "ARG_OF_PERICENTER": 272.314, "MEAN_ANOMALY": 325.8846, "EPHEMERIS_TYPE": 0, "CLASSIFICATION_TYPE": "U", "NORAD_CAT_ID": 66497, "ELEMENT_SET_NO": 999, "REV_AT_EPOCH": 409, "BSTAR": -0.016015, "MEAN_MOTION_DOT": -0.01974641, "MEAN_MOTION_DDOT": 0}, "tle": {"line1": "1 66497U 25263N   25337.16668980 -.01974641  00000+0 -16015-1 0  9991", "line2": "2 66497  42.9989 181.6015 0001475 272.3140 325.8846 15.72800268  4091"}}, "geometry": {"type": "Point", "coordinates": [-124.9311881109803, 37.42129331321105]}}]}